     2.100          NAVIGATION                              RINEX VERSION / TYPE
fic2rin                                 10/28/2015 00:19:26 PGM / RUN BY / DATE
                                                            END OF HEADER
17 15 10 27  2  0  0.0 -.192177016288D-03 -.113686837722D-11  .000000000000D+00
     .540000000000D+02  .647812500000D+02  .414267255894D-08 -.244091386531D+01
     .339001417160D-05  .105289553758D-01  .100322067738D-04  .515358331108D+04
     .180000000000D+06  .372529029846D-07  .591142283609D+00 -.800937414169D-07
     .974155522219D+00  .194250000000D+03 -.200193207568D+01 -.765531887476D-08
     .688600111530D-09  .100000000000D+01  .186800000000D+04  .000000000000D+00
     .240000000000D+01  .000000000000D+00 -.107102096081D-07  .540000000000D+02
     .172806000000D+06  .400000000000D+01
18 15 10 27  2  0  0.0  .446873717010D-03  .363797880709D-11  .000000000000D+00
     .690000000000D+02 -.310937500000D+02  .526450500205D-08 -.899685500381D+00
    -.140629708767D-05  .163620583480D-01  .129174441099D-04  .515364531326D+04
     .180000000000D+06 -.800937414169D-07  .261578967201D+01  .298023223877D-06
     .925276169809D+00  .114500000000D+03 -.193288060001D+01 -.856357099282D-08
    -.536093759028D-09  .100000000000D+01  .186800000000D+04  .000000000000D+00
     .240000000000D+01  .000000000000D+00 -.111758708954D-07  .690000000000D+02
     .172806000000D+06  .400000000000D+01
19 15 10 27  2  0  0.0 -.522017478943D-03 -.454747350886D-12  .000000000000D+00
     .890000000000D+02  .571562500000D+02  .428410702168D-08  .209035712909D+01
     .284984707832D-05  .113484130707D-01  .985153019428D-05  .515515785217D+04
     .180000000000D+06 -.257045030594D-06  .640320314151D+00 -.121071934700D-06
     .971176599689D+00  .198406250000D+03  .657135758719D+00 -.792104422900D-08
     .613954145083D-09  .100000000000D+01  .186800000000D+04  .000000000000D+00
     .240000000000D+01  .000000000000D+00 -.149011611938D-07  .890000000000D+02
     .172806000000D+06  .400000000000D+01
20 15 10 27  2  0  0.0  .366254709661D-03  .295585778076D-11  .000000000000D+00
     .500000000000D+01 -.410312500000D+02  .511414159595D-08 -.313242038252D+01
    -.234507024288D-05  .498619407881D-02  .126361846924D-04  .515366647911D+04
     .180000000000D+06  .109896063805D-06  .256368512213D+01 -.763684511185D-07
     .926452418851D+00  .116031250000D+03  .125623520632D+01 -.824248618978D-08
    -.574666794322D-09  .100000000000D+01  .186800000000D+04  .000000000000D+00
     .240000000000D+01  .000000000000D+00 -.838190317154D-08  .500000000000D+01
     .172806000000D+06  .400000000000D+01
21 15 10 27  2  0  0.0 -.489423051476D-03 -.250111042988D-11  .000000000000D+00
     .680000000000D+02 -.117187500000D+02  .580809907350D-08  .377961094911D-01
    -.491738319397D-06  .226363166003D-01  .378675758839D-05  .515372043800D+04
     .180000000000D+06 -.379979610443D-06  .157278571983D+01  .271946191788D-06
     .934365060398D+00  .296312500000D+03 -.186742413140D+01 -.921895543507D-08
    -.971469037013D-10  .100000000000D+01  .186800000000D+04  .000000000000D+00
     .240000000000D+01  .000000000000D+00 -.116415321827D-07  .680000000000D+02
     .172806000000D+06  .400000000000D+01
22 15 10 27  2  0  0.0  .404714606702D-03  .375166564481D-11  .000000000000D+00
     .100000000000D+02 -.382812500000D+02  .521128849966D-08 -.138496861357D+01
    -.189058482647D-05  .799183524214D-02  .127404928207D-04  .515368068314D+04
     .180000000000D+06  .175088644028D-06  .261667970552D+01  .100582838058D-06
     .923108878619D+00  .110156250000D+03 -.204665141134D+01 -.832427531091D-08
    -.542879755978D-09  .100000000000D+01  .186800000000D+04  .000000000000D+00
     .240000000000D+01  .000000000000D+00 -.176951289177D-07  .100000000000D+02
     .172806000000D+06  .400000000000D+01
23 15 10 27  2  0  0.0 -.141067430377D-03 -.204636307899D-11  .000000000000D+00
     .810000000000D+02  .132125000000D+03  .482020078071D-08  .263623596954D+01
     .686198472977D-05  .103971455246D-01  .923685729504D-05  .515378822517D+04
     .180000000000D+06 -.149011611938D-06 -.259365530308D+01 -.180676579475D-06
     .947667670002D+00  .196031250000D+03 -.262418200733D+01 -.814319633967D-08
     .518950187787D-09  .100000000000D+01  .186800000000D+04  .000000000000D+00
     .240000000000D+01  .000000000000D+00 -.200234353542D-07  .810000000000D+02
     .172806000000D+06  .400000000000D+01
25 15 10 27  2  0  0.0 -.583115033805D-04 -.557065504836D-11  .000000000000D+00
     .720000000000D+02 -.121937500000D+03  .396266506091D-08 -.780872155260D-01
    -.638142228127D-05  .467066676356D-02  .122692435980D-04  .515361755943D+04
     .180000000000D+06  .502914190292D-07 -.499698192995D+00  .279396772385D-07
     .978775888573D+00  .149531250000D+03  .725478811927D+00 -.790854370830D-08
    -.453947480163D-09  .100000000000D+01  .186800000000D+04  .000000000000D+00
     .240000000000D+01  .000000000000D+00  .558793544769D-08  .720000000000D+02
     .172806000000D+06  .400000000000D+01
26 15 10 27  2  0  0.0 -.987350940704D-04 -.140971678775D-10  .000000000000D+00
     .570000000000D+02 -.135281250000D+03  .421303263258D-08 -.454744451052D+00
    -.698491930962D-05  .263649504632D-03  .120308250189D-04  .515366345024D+04
     .180000000000D+06  .465661287308D-07 -.504940015727D+00 -.484287738800D-07
     .960831624231D+00  .150562500000D+03 -.207484195098D+00 -.796711757671D-08
    -.455376111100D-09  .100000000000D+01  .186800000000D+04  .000000000000D+00
     .240000000000D+01  .000000000000D+00  .745058059692D-08  .570000000000D+02
     .172806000000D+06  .400000000000D+01
27 15 10 27  2  0  0.0  .308058224618D-04  .306954461848D-11  .000000000000D+00
     .420000000000D+02  .471250000000D+02  .424339103998D-08 -.249391694241D+01
     .252574682236D-05  .271905178670D-02  .109225511551D-04  .515370321655D+04
     .180000000000D+06  .745058059692D-08  .542486048150D+00 -.298023223877D-07
     .969117914074D+00  .173687500000D+03  .302073237740D+00 -.785282710177D-08
     .669313593883D-09  .100000000000D+01  .186800000000D+04  .000000000000D+00
     .240000000000D+01  .000000000000D+00  .186264514923D-08  .420000000000D+02
     .172806000000D+06  .400000000000D+01
28 15 10 27  2  0  0.0  .477195251733D-03  .261479726760D-11  .000000000000D+00
     .330000000000D+02 -.905312500000D+02  .362336521342D-08 -.165392378226D+01
    -.465288758278D-05  .198479238898D-01  .124443322420D-04  .515370249367D+04
     .180000000000D+06  .210478901863D-06 -.427413488425D+00  .489875674248D-06
     .989614546218D+00  .152343750000D+03 -.165388273424D+01 -.750709841507D-08
    -.391444876679D-09  .100000000000D+01  .186800000000D+04  .000000000000D+00
     .240000000000D+01  .000000000000D+00 -.111758708954D-07  .330000000000D+02
     .172806000000D+06  .400000000000D+01
29 15 10 27  2  0  0.0  .641563441604D-03  .193267624127D-11  .000000000000D+00
     .108000000000D+03  .618750000000D+02  .425410577201D-08  .381673629896D-01
     .315159559250D-05  .854342710227D-03  .106617808342D-04  .515367176628D+04
     .180000000000D+06  .707805156708D-07  .600648142423D+00  .372529029846D-08
     .975041098215D+00  .182937500000D+03 -.500044497889D+00 -.792175854447D-08
     .679671168175D-09  .100000000000D+01  .186800000000D+04  .000000000000D+00
     .340000000000D+01  .000000000000D+00 -.102445483208D-07  .108000000000D+03
     .172806000000D+06  .400000000000D+01
30 15 10 27  2  0  0.0  .474969856441D-04  .602540239925D-11  .000000000000D+00
     .320000000000D+02 -.421562500000D+02  .520414534497D-08  .926121644295D+00
    -.219233334064D-05  .169975892641D-02  .955536961555D-06  .515367934418D+04
     .180000000000D+06  .558793544769D-08 -.147598478309D+01 -.106170773506D-06
     .954130852317D+00  .353750000000D+03 -.312388869841D+01 -.880858119848D-08
    -.283940398686D-09  .100000000000D+01  .186800000000D+04  .000000000000D+00
     .240000000000D+01  .000000000000D+00  .325962901115D-08  .320000000000D+02
     .172806000000D+06  .400000000000D+01
31 15 10 27  2  0  0.0  .297671649605D-03 -.147792889038D-11  .000000000000D+00
     .380000000000D+02 -.316562500000D+02  .485663086960D-08  .101534293037D+01
    -.175833702087D-05  .820390903391D-02  .622123479843D-06  .515361565018D+04
     .180000000000D+06  .126659870148D-06 -.151477005196D+01  .204890966415D-07
     .973208164266D+00  .369750000000D+03 -.511329845866D+00 -.864607442942D-08
    -.255010622216D-09  .100000000000D+01  .186800000000D+04  .000000000000D+00
     .240000000000D+01  .000000000000D+00 -.135041773319D-07  .380000000000D+02
     .172806000000D+06  .400000000000D+01
32 15 10 27  2  0  0.0 -.204378738999D-05  .117097442853D-10  .000000000000D+00
     .840000000000D+02 -.193437500000D+02  .457626204825D-08  .143058470045D+01
    -.102818012238D-05  .113582003396D-01  .132247805595D-04  .515367225838D+04
     .180000000000D+06 -.115483999252D-06  .272115849131D+01  .141561031342D-06
     .947213201335D+00  .118812500000D+03  .158664958381D+00 -.800354766560D-08
    -.582167106740D-09  .100000000000D+01  .186800000000D+04  .000000000000D+00
     .240000000000D+01  .000000000000D+00 -.325962901115D-08  .840000000000D+02
     .172806000000D+06  .400000000000D+01
 1 15 10 27  1 59 44.0  .318000093102D-05  .795807864051D-12  .000000000000D+00
     .000000000000D+00 -.160312500000D+02  .503592405216D-08  .165182644049D+01
    -.895932316780D-06  .478238670621D-02  .346451997757D-05  .515364929199D+04
     .179984000000D+06 -.279396772385D-07  .160016982735D+01  .726431608200D-07
     .962556881558D+00  .313437500000D+03  .493880773442D+00 -.851428322550D-08
    -.136791412197D-09  .100000000000D+01  .186800000000D+04  .000000000000D+00
     .240000000000D+01  .000000000000D+00  .512227416039D-08  .000000000000D+00
     .174576000000D+06  .400000000000D+01
